start=new Date('2023-02-08T00:00:00.000Z').valueOf();
sats=[{"LAUNCH_DATE":"2022-08-28","INCLINATION":"53.2169","RA_OF_ASC_NODE":"248.1824","SEMIMAJOR_AXIS":"6917.882","EPHEMERIS_TYPE":"0","SITE":"AFETR","OBJECT_NAME":"STARLINK-4658","CENTER_NAME":"EARTH","TLE_LINE2":"2 53612  53.2169 248.1824 0001162  87.4157 272.6969 15.08839467 25678","BSTAR":"0.00003834200000","MEAN_MOTION":"15.08839467","APOAPSIS":"540.551","CLASSIFICATION_TYPE":"U","TIME_SYSTEM":"UTC","OBJECT_ID":"2022-104AA","MEAN_MOTION_DOT":"0.00000322","FILE":"3777976","PERIAPSIS":"538.943","DECAY_DATE":null,"GP_ID":"224746231","PERIOD":"95.438","REF_FRAME":"TEME","EPOCH":"2023-02-07T20:54:39.967488","ECCENTRICITY":"0.00011620","REV_AT_EPOCH":"2567","MEAN_MOTION_DDOT":"0.0000000000000","RCS_SIZE":"LARGE","MEAN_ELEMENT_THEORY":"SGP4","MEAN_ANOMALY":"272.6969","OBJECT_TYPE":"PAYLOAD","TLE_LINE1":"1 53612U 22104AA  23038.87129592  .00000322  00000-0  38342-4 0  9996","ARG_OF_PERICENTER":"87.4157","ELEMENT_SET_NO":"999","COUNTRY_CODE":"US","NORAD_CAT_ID":"53612"},{"CENTER_NAME":"EARTH","OBJECT_NAME":"STARLINK-4655","TLE_LINE2":"2 53613  53.2162 248.5302 0001084  89.1607 270.9509 15.08832384 25660","MEAN_MOTION":"15.08832384","BSTAR":"0.00000839090000","TIME_SYSTEM":"UTC","CLASSIFICATION_TYPE":"U","APOAPSIS":"540.519","OBJECT_ID":"2022-104AB","MEAN_MOTION_DOT":"-0.00000154","LAUNCH_DATE":"2022-08-28","INCLINATION":"53.2162","SEMIMAJOR_AXIS":"6917.904","RA_OF_ASC_NODE":"248.5302","SITE":"AFETR","EPHEMERIS_TYPE":"0","MEAN_MOTION_DDOT":"0.0000000000000","REV_AT_EPOCH":"2566","MEAN_ANOMALY":"270.9509","MEAN_ELEMENT_THEORY":"SGP4","RCS_SIZE":"LARGE","OBJECT_TYPE":"PAYLOAD","ARG_OF_PERICENTER":"89.1607","TLE_LINE1":"1 53613U 22104AB  23038.81243104 -.00000154  00000-0  83909-5 0  9991","COUNTRY_CODE":"US","ELEMENT_SET_NO":"999","NORAD_CAT_ID":"53613","PERIAPSIS":"539.019","FILE":"3777976","DECAY_DATE":null,"GP_ID":"224746481","PERIOD":"95.438","REF_FRAME":"TEME","EPOCH":"2023-02-07T19:29:54.041856","ECCENTRICITY":"0.00010840"},{"ELEMENT_SET_NO":"999","COUNTRY_CODE":"US","TLE_LINE1":"1 53616U 22104AE  23038.81428559  .00004473  00000-0  29889-3 0  9995","ARG_OF_PERICENTER":"79.4271","NORAD_CAT_ID":"53616","REV_AT_EPOCH":"2591","MEAN_MOTION_DDOT":"0.0000000000000","OBJECT_TYPE":"PAYLOAD","RCS_SIZE":"LARGE","MEAN_ANOMALY":"280.6871","MEAN_ELEMENT_THEORY":"SGP4","REF_FRAME":"TEME","GP_ID":"224746721","PERIOD":"95.437","EPOCH":"2023-02-07T19:32:34.274976","ECCENTRICITY":"0.00013260","FILE":"3777976","PERIAPSIS":"538.812","DECAY_DATE":null,"APOAPSIS":"540.646","TIME_SYSTEM":"UTC","CLASSIFICATION_TYPE":"U","BSTAR":"0.00029889000000","MEAN_MOTION":"15.08845326","MEAN_MOTION_DOT":"0.00004473","OBJECT_ID":"2022-104AE","OBJECT_NAME":"STARLINK-4605","CENTER_NAME":"EARTH","TLE_LINE2":"2 53616  53.2139 238.3723 0001326  79.4271 280.6871 15.08845326 25917","RA_OF_ASC_NODE":"238.3723","SEMIMAJOR_AXIS":"6917.864","SITE":"AFETR","EPHEMERIS_TYPE":"0","LAUNCH_DATE":"2022-08-28","INCLINATION":"53.2139"},{"NORAD_CAT_ID":"53617","ARG_OF_PERICENTER":"84.2046","TLE_LINE1":"1 53617U 22104AF  23038.80136933  .00001801  00000-0  13120-3 0  9990","COUNTRY_CODE":"US","ELEMENT_SET_NO":"999","MEAN_ELEMENT_THEORY":"SGP4","MEAN_ANOMALY":"275.9068","RCS_SIZE":"LARGE","OBJECT_TYPE":"PAYLOAD","MEAN_MOTION_DDOT":"0.0000000000000","REV_AT_EPOCH":"2566","ECCENTRICITY":"0.00010670","EPOCH":"2023-02-07T19:13:58.310112","GP_ID":"224745481","PERIOD":"95.437","REF_FRAME":"TEME","DECAY_DATE":null,"PERIAPSIS":"538.993","FILE":"3777976","OBJECT_ID":"2022-104AF","MEAN_MOTION_DOT":"0.00001801","BSTAR":"0.00013120000000","MEAN_MOTION":"15.08844552","TIME_SYSTEM":"UTC","CLASSIFICATION_TYPE":"U","APOAPSIS":"540.470","TLE_LINE2":"2 53617  53.2156 248.4632 0001067  84.2046 275.9068 15.08844552 25661","CENTER_NAME":"EARTH","OBJECT_NAME":"STARLINK-4601","EPHEMERIS_TYPE":"0","SITE":"AFETR","SEMIMAJOR_AXIS":"6917.866","RA_OF_ASC_NODE":"248.4632","INCLINATION":"53.2156","LAUNCH_DATE":"2022-08-28"},{"DECAY_DATE":null,"PERIAPSIS":"538.956","FILE":"3777976","ECCENTRICITY":"0.00011180","EPOCH":"2023-02-07T20:33:26.571456","REF_FRAME":"TEME","GP_ID":"224745731","PERIOD":"95.437","OBJECT_TYPE":"PAYLOAD","MEAN_ANOMALY":"278.5316","MEAN_ELEMENT_THEORY":"SGP4","RCS_SIZE":"LARGE","MEAN_MOTION_DDOT":"0.0000000000000","REV_AT_EPOCH":"2509","NORAD_CAT_ID":"53618","COUNTRY_CODE":"US","ELEMENT_SET_NO":"999","ARG_OF_PERICENTER":"81.5803","TLE_LINE1":"1 53618U 22104AG  23038.85655754  .00003511  00000-0  23853-3 0  9997","INCLINATION":"53.2148","LAUNCH_DATE":"2022-08-28","SITE":"AFETR","EPHEMERIS_TYPE":"0","SEMIMAJOR_AXIS":"6917.865","RA_OF_ASC_NODE":"248.0976","TLE_LINE2":"2 53618  53.2148 248.0976 0001118  81.5803 278.5316 15.08845198 25097","CENTER_NAME":"EARTH","OBJECT_NAME":"STARLINK-4604","MEAN_MOTION_DOT":"0.00003511","OBJECT_ID":"2022-104AG","TIME_SYSTEM":"UTC","CLASSIFICATION_TYPE":"U","APOAPSIS":"540.503","BSTAR":"0.00023853000000","MEAN_MOTION":"15.08845198"},{"INCLINATION":"53.2169","LAUNCH_DATE":"2022-08-28","SITE":"AFETR","EPHEMERIS_TYPE":"0","RA_OF_ASC_NODE":"248.1359","SEMIMAJOR_AXIS":"6917.869","TLE_LINE2":"2 53619  53.2169 248.1359 0000989  83.7048 276.4057 15.08843746 25677","OBJECT_NAME":"STARLINK-4609","CENTER_NAME":"EARTH","OBJECT_ID":"2022-104AH","MEAN_MOTION_DOT":"0.00000984","MEAN_MOTION":"15.08843746","BSTAR":"0.00007987700000","APOAPSIS":"540.418","TIME_SYSTEM":"UTC","CLASSIFICATION_TYPE":"U","DECAY_DATE":null,"FILE":"3777976","PERIAPSIS":"539.050","EPOCH":"2023-02-07T20:44:03.240096","ECCENTRICITY":"0.00009890","PERIOD":"95.437","GP_ID":"224746982","REF_FRAME":"TEME","RCS_SIZE":"LARGE","MEAN_ELEMENT_THEORY":"SGP4","MEAN_ANOMALY":"276.4057","OBJECT_TYPE":"PAYLOAD","REV_AT_EPOCH":"2567","MEAN_MOTION_DDOT":"0.0000000000000","NORAD_CAT_ID":"53619","TLE_LINE1":"1 53619U 22104AH  23038.86392639  .00000984  00000-0  79877-4 0  9998","ARG_OF_PERICENTER":"83.7048","ELEMENT_SET_NO":"999","COUNTRY_CODE":"US"},{"APOAPSIS":"540.592","TIME_SYSTEM":"UTC","CLASSIFICATION_TYPE":"U","BSTAR":"0.00039522000000","MEAN_MOTION":"15.08852915","MEAN_MOTION_DOT":"0.00006010","OBJECT_ID":"2022-104AJ","OBJECT_NAME":"STARLINK-4615","CENTER_NAME":"EARTH","TLE_LINE2":"2 53620  53.2154 248.0532 0001281  91.0265 269.0874 15.08852915 25789","RA_OF_ASC_NODE":"248.0532","SEMIMAJOR_AXIS":"6917.841","SITE":"AFETR","EPHEMERIS_TYPE":"0","LAUNCH_DATE":"2022-08-28","INCLINATION":"53.2154","ELEMENT_SET_NO":"999","COUNTRY_CODE":"US","TLE_LINE1":"1 53620U 22104AJ  23038.84918786  .00006010  00000-0  39522-3 0  9993","ARG_OF_PERICENTER":"91.0265","NORAD_CAT_ID":"53620","REV_AT_EPOCH":"2578","MEAN_MOTION_DDOT":"0.0000000000000","OBJECT_TYPE":"PAYLOAD","RCS_SIZE":"LARGE","MEAN_ELEMENT_THEORY":"SGP4","MEAN_ANOMALY":"269.0874","REF_FRAME":"TEME","GP_ID":"224747222","PERIOD":"95.437","EPOCH":"2023-02-07T20:22:49.831104","ECCENTRICITY":"0.00012810","FILE":"3777976","PERIAPSIS":"538.820","DECAY_DATE":null},{"SITE":"AFETR","EPHEMERIS_TYPE":"0","SEMIMAJOR_AXIS":"6917.867","RA_OF_ASC_NODE":"248.1188","INCLINATION":"53.2156","LAUNCH_DATE":"2022-08-28","OBJECT_ID":"2022-104AK","MEAN_MOTION_DOT":"0.00002551","BSTAR":"0.00017828000000","MEAN_MOTION":"15.08844460","TIME_SYSTEM":"UTC","CLASSIFICATION_TYPE":"U","APOAPSIS":"540.504","TLE_LINE2":"2 53621  53.2156 248.1188 0001117  85.1239 274.9880 15.08844460 25679","CENTER_NAME":"EARTH","OBJECT_NAME":"STARLINK-4608","EPOCH":"2023-02-07T20:38:44.990016","ECCENTRICITY":"0.00011170","GP_ID":"224745982","PERIOD":"95.437","REF_FRAME":"TEME","DECAY_DATE":null,"PERIAPSIS":"538.959","FILE":"3777976","NORAD_CAT_ID":"53621","ARG_OF_PERICENTER":"85.1239","TLE_LINE1":"1 53621U 22104AK  23038.86024294  .00002551  00000-0  17828-3 0  9999","COUNTRY_CODE":"US","ELEMENT_SET_NO":"999","MEAN_ANOMALY":"274.9880","MEAN_ELEMENT_THEORY":"SGP4","RCS_SIZE":"LARGE","OBJECT_TYPE":"PAYLOAD","MEAN_MOTION_DDOT":"0.0000000000000","REV_AT_EPOCH":"2567"},{"ARG_OF_PERICENTER":"79.4177","TLE_LINE1":"1 53622U 22104AL  23038.84277721  .00003704  00000-0  25065-3 0  9996","COUNTRY_CODE":"US","ELEMENT_SET_NO":"999","NORAD_CAT_ID":"53622","MEAN_MOTION_DDOT":"0.0000000000000","REV_AT_EPOCH":"2578","MEAN_ANOMALY":"280.6952","MEAN_ELEMENT_THEORY":"SGP4","RCS_SIZE":"LARGE","OBJECT_TYPE":"PAYLOAD","GP_ID":"224746232","PERIOD":"95.437","REF_FRAME":"TEME","ECCENTRICITY":"0.00012130","EPOCH":"2023-02-07T20:13:35.950944","PERIAPSIS":"538.884","FILE":"3777976","DECAY_DATE":null,"BSTAR":"0.00025065000000","MEAN_MOTION":"15.08847158","TIME_SYSTEM":"UTC","CLASSIFICATION_TYPE":"U","APOAPSIS":"540.563","OBJECT_ID":"2022-104AL","MEAN_MOTION_DOT":"0.00003704","CENTER_NAME":"EARTH","OBJECT_NAME":"STARLINK-4568","TLE_LINE2":"2 53622  53.2139 248.0152 0001213  79.4177 280.6952 15.08847158 25788","SEMIMAJOR_AXIS":"6917.859","RA_OF_ASC_NODE":"248.0152","EPHEMERIS_TYPE":"0","SITE":"AFETR","LAUNCH_DATE":"2022-08-28","INCLINATION":"53.2139"},{"ELEMENT_SET_NO":"999","COUNTRY_CODE":"US","TLE_LINE1":"1 53623U 22104AM  23038.85287307  .00001163  00000-0  91188-4 0  9996","ARG_OF_PERICENTER":"82.9471","NORAD_CAT_ID":"53623","REV_AT_EPOCH":"2578","MEAN_MOTION_DDOT":"0.0000000000000","OBJECT_TYPE":"PAYLOAD","RCS_SIZE":"LARGE","MEAN_ANOMALY":"277.1664","MEAN_ELEMENT_THEORY":"SGP4","REF_FRAME":"TEME","GP_ID":"224746482","PERIOD":"95.438","EPOCH":"2023-02-07T20:28:08.233248","ECCENTRICITY":"0.00012520","FILE":"3777976","PERIAPSIS":"538.904","DECAY_DATE":null,"APOAPSIS":"540.636","TIME_SYSTEM":"UTC","CLASSIFICATION_TYPE":"U","BSTAR":"0.00009118800000","MEAN_MOTION":"15.08832064","MEAN_MOTION_DOT":"0.00001163","OBJECT_ID":"2022-104AM","OBJECT_NAME":"STARLINK-4573","CENTER_NAME":"EARTH","TLE_LINE2":"2 53623  53.2163 248.0706 0001252  82.9471 277.1664 15.08832064 25781","RA_OF_ASC_NODE":"248.0706","SEMIMAJOR_AXIS":"6917.905","SITE":"AFETR","EPHEMERIS_TYPE":"0","LAUNCH_DATE":"2022-08-28","INCLINATION":"53.2163"}];
